NORAD_CAT_ID,OBJECT_NAME,OBJECT_TYPE,EPOCH,MEAN_MOTION,ECCENTRICITY,INCLINATION,RA_OF_ASC_NODE,ARG_OF_PERICENTER,MEAN_ANOMALY,BSTAR,MEAN_MOTION_DOT,MEAN_MOTION_DDOT,TLE_LINE0,TLE_LINE1,TLE_LINE2,SEMIMAJOR_AXIS,PERIOD,APOGEE,PERIGEE,DECAYED
55663.0,STARLINK-5473,PAYLOAD,2024-01-18 07:44:21,14.98328145,0.0003006,70.0008,334.5484,256.5297,103.5528,6.4754e-05,6.8e-06,0.0,0 STARLINK-5473,1 55663U 23021AM  24018.32246671  .00000680  00000-0  64754-4 0  9993,2 55663  70.0008 334.5484 0003006 256.5297 103.5528 14.98328145 52240,6950.199,96.107,574.153,569.974,0.0
55663.0,STARLINK-5473,PAYLOAD,2024-01-18 22:09:33,14.98330012,0.0002539,70.0018,333.0326,255.1986,104.8892,-3.0783e-05,-4.6e-06,0.0,0 STARLINK-5473,1 55663U 23021AM  24018.92330910 -.00000460  00000-0 -30783-4 0  9992,2 55663  70.0018 333.0326 0002539 255.1986 104.8892 14.98330012 52334,6950.193,96.107,573.823,570.293,0.0
55663.0,STARLINK-5473,PAYLOAD,2024-01-19 06:10:14,14.98333262,0.0002747,70.0011,332.1896,266.4899,93.5945,-2.2426e-05,-3.61e-06,0.0,0 STARLINK-5473,1 55663U 23021AM  24019.25710701 -.00000361  00000-0 -22426-4 0  9994,2 55663  70.0011 332.1896 0002747 266.4899  93.5945 14.98333262 52083,6950.183,96.107,573.957,570.139,0.0
55663.0,STARLINK-5473,PAYLOAD,2024-01-19 22:11:34,14.98320249,0.0002917,70.0011,330.5061,266.2998,93.7827,0.00018543,2.12e-05,0.0,0 STARLINK-5473,1 55663U 23021AM  24019.92470739  .00002120  00000-0  18543-3 0  9999,2 55663  70.0011 330.5061 0002917 266.2998  93.7827 14.98320249 52482,6950.223,96.108,574.115,570.061,0.0
55663.0,STARLINK-5473,PAYLOAD,2024-01-20 02:59:59,14.98318227,0.0002899,70.0009,330.0012,265.6336,94.4492,0.00022376,2.577e-05,0.0,0 STARLINK-5473,1 55663U 23021AM  24020.12498858  .00002577  00000-0  22376-3 0  9990,2 55663  70.0009 330.0012 0002899 265.6336  94.4492 14.98318227 52218,6950.229,96.108,574.109,570.079,0.0
55663.0,STARLINK-5473,PAYLOAD,2024-01-20 06:12:14,14.98321976,0.000287,70.0012,329.6651,266.6864,93.3966,0.00025531,2.954e-05,0.0,0 STARLINK-5473,1 55663U 23021AM  24020.25850606  .00002954  00000-0  25531-3 0  9992,2 55663  70.0012 329.6651 0002870 266.6864  93.3966 14.98321976 52535,6950.218,96.108,574.077,570.088,0.0
55663.0,STARLINK-5473,PAYLOAD,2024-01-20 22:13:36,14.98259999,0.0002394,70.0013,327.9825,271.674,88.4145,0.0010286,0.00012179,0.0,0 STARLINK-5473,1 55663U 23021AM  24020.92611693  .00012179  00000-0  10286-2 0  9997,2 55663  70.0013 327.9825 0002394 271.6740  88.4145 14.98259999 52630,6950.409,96.111,573.938,570.61,0.0
55663.0,STARLINK-5473,PAYLOAD,2024-01-21 03:02:00,14.98304296,0.0002667,70.0013,327.4769,270.4613,89.6241,0.0003295,3.838e-05,0.0,0 STARLINK-5473,1 55663U 23021AM  24021.12639580  .00003838  00000-0  32950-3 0  9990,2 55663  70.0013 327.4769 0002667 270.4613  89.6241 14.98304296 52362,6950.272,96.109,573.991,570.284,0.0
55663.0,STARLINK-5473,PAYLOAD,2024-01-21 06:14:16,14.98328106,0.0002501,70.002,327.1427,258.1367,101.9512,3.9571e-06,-4.6e-07,0.0,0 STARLINK-5473,1 55663U 23021AM  24021.25990971 -.00000046  00000-0  39571-5 0  9995,2 55663  70.0020 327.1427 0002501 258.1367 101.9512 14.98328106 52381,6950.199,96.107,573.802,570.326,0.0
55663.0,STARLINK-5473,PAYLOAD,2024-01-21 22:15:36,14.98333048,0.0002593,70.0017,325.459,265.0587,95.0276,1.273e-05,5.9e-07,0.0,0 STARLINK-5473,1 55663U 23021AM  24021.92750558  .00000059  00000-0  12730-4 0  9994,2 55663  70.0017 325.4590 0002593 265.0587  95.0276 14.98333048 52786,6950.183,96.107,573.851,570.246,0.0
55663.0,STARLINK-5473,PAYLOAD,2024-01-22 06:16:16,14.98334349,0.0002666,70.0014,324.6167,261.9136,98.1721,3.3385e-05,3.05e-06,0.0,0 STARLINK-5473,1 55663U 23021AM  24022.26130353  .00000305  00000-0  33385-4 0  9990,2 55663  70.0014 324.6167 0002666 261.9136  98.1721 14.98334349 52537,6950.179,96.107,573.897,570.192,0.0
55663.0,STARLINK-5473,PAYLOAD,2024-01-22 22:17:37,14.98328857,0.0002648,70.0015,322.9338,260.1061,99.98,2.1192e-05,1.6e-06,0.0,0 STARLINK-5473,1 55663U 23021AM  24022.92890663  .00000160  00000-0  21192-4 0  9992,2 55663  70.0015 322.9338 0002648 260.1061  99.9800 14.98328857 52935,6950.196,96.107,573.902,570.221,0.0
55663.0,STARLINK-5473,PAYLOAD,2024-01-23 03:06:01,14.98313927,0.0002395,70.0016,322.4287,261.2846,98.8042,0.00032738,3.814e-05,0.0,0 STARLINK-5473,1 55663U 23021AM  24023.12918830  .00003814  00000-0  32738-3 0  9998,2 55663  70.0016 322.4287 0002395 261.2846  98.8042 14.98313927 52664,6950.243,96.108,573.772,570.443,0.0
55663.0,STARLINK-5473,PAYLOAD,2024-01-23 04:42:09,14.98319582,0.0002408,70.0016,322.2602,262.464,97.6245,0.00025139,2.907e-05,0.0,0 STARLINK-5473,1 55663U 23021AM  24023.19594724  .00002907  00000-0  25139-3 0  9996,2 55663  70.0016 322.2602 0002408 262.4640  97.6245 14.98319582 52972,6950.225,96.108,573.764,570.416,0.0
55663.0,STARLINK-5473,PAYLOAD,2024-01-23 22:19:38,14.98330167,0.0002654,70.0012,320.4093,255.7065,104.38,3.4173e-05,3.15e-06,0.0,0 STARLINK-5473,1 55663U 23021AM  24023.93030346  .00000315  00000-0  34173-4 0  9993,2 55663  70.0012 320.4093 0002654 255.7065 104.3800 14.98330167 53089,6950.192,96.107,573.902,570.213,0.0
55663.0,STARLINK-5473,PAYLOAD,2024-01-24 03:08:02,14.98329677,0.0002642,70.0014,319.9045,256.2169,103.8696,-6.6893e-06,-1.73e-06,0.0,0 STARLINK-5473,1 55663U 23021AM  24024.13058483 -.00000173  00000-0 -66893-5 0  9997,2 55663  70.0014 319.9045 0002642 256.2169 103.8696 14.98329677 52810,6950.194,96.107,573.895,570.223,0.0
55663.0,STARLINK-5473,PAYLOAD,2024-01-24 04:44:10,14.98329884,0.0002611,70.0015,319.7363,257.6402,102.4465,7.4703e-06,-4e-08,0.0,0 STARLINK-5473,1 55663U 23021AM  24024.19734454 -.00000004  00000-0  74703-5 0  9993,2 55663  70.0015 319.7363 0002611 257.6402 102.4465 14.98329884 53127,6950.193,96.107,573.873,570.244,0.0
55663.0,STARLINK-5473,PAYLOAD,2024-01-24 22:21:39,14.98330013,0.0002627,70.0015,317.8855,255.2685,104.8183,-3.7994e-05,-5.46e-06,0.0,0 STARLINK-5473,1 55663U 23021AM  24024.93170537 -.00000546  00000-0 -37994-4 0  9993,2 55663  70.0015 317.8855 0002627 255.2685 104.8183 14.98330013 53237,6950.193,96.107,573.884,570.232,0.0
55663.0,STARLINK-5473,PAYLOAD,2024-01-25 03:10:03,14.98329994,0.0002635,70.0015,317.3806,254.5054,105.5815,-3.5219e-05,-5.13e-06,0.0,0 STARLINK-5473,1 55663U 23021AM  24025.13198523 -.00000513  00000-0 -35219-4 0  9993,2 55663  70.0015 317.3806 0002635 254.5054 105.5815 14.98329994 52964,6950.193,96.107,573.889,570.227,0.0
55663.0,STARLINK-5473,PAYLOAD,2024-01-25 04:46:11,14.983333,0.0002683,70.0016,317.2123,255.5271,104.5591,3.6242e-05,3.4e-06,0.0,0 STARLINK-5473,1 55663U 23021AM  24025.19874089  .00000340  00000-0  36242-4 0  9990,2 55663  70.0016 317.2123 0002683 255.5271 104.5591 14.98333300 53272,6950.183,96.107,573.912,570.183,0.0
55663.0,STARLINK-5473,PAYLOAD,2024-01-25 22:23:40,14.98326159,0.0002465,70.0023,315.3616,239.4318,120.6598,1.0669e-05,3.4e-07,0.0,0 STARLINK-5473,1 55663U 23021AM  24025.93310539  .00000034  00000-0  10669-4 0  9992,2 55663  70.0023 315.3616 0002465 239.4318 120.6598 14.98326159 53389,6950.205,96.107,573.783,570.357,0.0
55663.0,STARLINK-5473,PAYLOAD,2024-01-26 03:12:04,14.98323747,0.0002481,70.0022,314.8564,242.5931,117.4975,-2.156e-05,-3.5e-06,0.0,0 STARLINK-5473,1 55663U 23021AM  24026.13338850 -.00000350  00000-0 -21560-4 0  9996,2 55663  70.0022 314.8564 0002481 242.5931 117.4975 14.98323747 53112,6950.212,96.107,573.802,570.353,0.0
55663.0,STARLINK-5473,PAYLOAD,2024-01-26 04:48:12,14.98323838,0.0002474,70.0021,314.6879,244.1096,115.9809,-2.0975e-05,-3.43e-06,0.0,0 STARLINK-5473,1 55663U 23021AM  24026.20014885 -.00000343  00000-0 -20975-4 0  9994,2 55663  70.0021 314.6879 0002474 244.1096 115.9809 14.98323838 53424,6950.212,96.107,573.796,570.357,0.0
55663.0,STARLINK-5473,PAYLOAD,2024-01-26 19:13:24,14.98332259,0.0002557,70.0014,313.172,252.6827,107.4052,1.0987e-05,3.8e-07,0.0,0 STARLINK-5473,1 55663U 23021AM  24026.80098355  .00000038  00000-0  10987-4 0  9995,2 55663  70.0014 313.1720 0002557 252.6827 107.4052 14.98332259 53213,6950.186,96.107,573.828,570.274,0.0
55663.0,STARLINK-5473,PAYLOAD,2024-01-27 04:50:13,14.98333884,0.0002541,70.0013,312.1619,254.1853,105.9026,3.1245e-05,2.8e-06,0.0,0 STARLINK-5473,1 55663U 23021AM  24027.20154147  .00000280  00000-0  31245-4 0  9991,2 55663  70.0013 312.1619 0002541 254.1853 105.9026 14.98333884 53575,6950.181,96.107,573.812,570.28,0.0
55663.0,STARLINK-5473,PAYLOAD,2024-01-27 19:15:26,14.98327306,0.0002501,70.0015,310.6472,254.1326,105.9557,4.3275e-05,4.23e-06,0.0,0 STARLINK-5473,1 55663U 23021AM  24027.80238500  .00000423  00000-0  43275-4 0  9998,2 55663  70.0015 310.6472 0002501 254.1326 105.9557 14.98327306 53366,6950.201,96.107,573.804,570.328,0.0
55663.0,STARLINK-5473,PAYLOAD,2024-01-27 22:27:42,14.98327093,0.0002528,70.0014,310.3105,253.1288,106.9594,3.4891e-05,3.23e-06,0.0,0 STARLINK-5473,1 55663U 23021AM  24027.93590534  .00000323  00000-0  34891-4 0  9993,2 55663  70.0014 310.3105 0002528 253.1288 106.9594 14.98327093 53680,6950.202,96.107,573.824,570.31,0.0
55663.0,STARLINK-5473,PAYLOAD,2024-01-28 04:52:14,14.98326491,0.0002526,70.0013,309.6367,255.8248,104.263,2.5102e-05,2.07e-06,0.0,0 STARLINK-5473,1 55663U 23021AM  24028.20294656  .00000207  00000-0  25102-4 0  9996,2 55663  70.0013 309.6367 0002526 255.8248 104.2630 14.98326491 53721,6950.204,96.107,573.824,570.313,0.0
55663.0,STARLINK-5473,PAYLOAD,2024-01-28 19:17:27,14.9832334,0.0002389,70.0015,308.1219,252.0111,108.0788,-8.5752e-05,-1.116e-05,0.0,0 STARLINK-5473,1 55663U 23021AM  24028.80379362 -.00001116  00000-0 -85752-4 0  9999,2 55663  70.0015 308.1219 0002389 252.0111 108.0788 14.98323340 53511,6950.213,96.107,573.739,570.418,0.0
55663.0,STARLINK-5473,PAYLOAD,2024-01-28 22:29:44,14.98321591,0.0002477,70.0014,307.7857,249.2243,110.865,-0.00010718,-1.371e-05,0.0,0 STARLINK-5473,1 55663U 23021AM  24028.93731562 -.00001371  00000-0 -10718-3 0  9999,2 55663  70.0014 307.7857 0002477 249.2243 110.8650 14.98321591 53835,6950.219,96.108,573.805,570.362,0.0
